[{"OBJECT_NAME":"ONEWEB-0187","OBJECT_ID":"2021-031M","EPOCH":"2026-03-09T22:34:00.794208","MEAN_MOTION":13.14501996,"ECCENTRICITY":0.00018798,"INCLINATION":87.8974,"RA_OF_ASC_NODE":309.5282,"ARG_OF_PERICENTER":75.9815,"MEAN_ANOMALY":284.1523,"EPHEMERIS_TYPE":0,"CLASSIFICATION_TYPE":"U","NORAD_CAT_ID":48221,"ELEMENT_SET_NO":999,"REV_AT_EPOCH":23522,"BSTAR":-6.811734e-5,"MEAN_MOTION_DOT":-1.2e-7,"MEAN_MOTION_DDOT":0},{"OBJECT_NAME":"DELTA 1 DEB","OBJECT_ID":"1975-052GL","EPOCH":"2026-03-09T10:14:08.717856","MEAN_MOTION":12.98738446,"ECCENTRICITY":0.02743241,"INCLINATION":99.7118,"RA_OF_ASC_NODE":128.9049,"ARG_OF_PERICENTER":99.8912,"MEAN_ANOMALY":17.9926,"EPHEMERIS_TYPE":0,"CLASSIFICATION_TYPE":"U","NORAD_CAT_ID":21515,"ELEMENT_SET_NO":999,"REV_AT_EPOCH":64973,"BSTAR":0.00073595179,"MEAN_MOTION_DOT":2.23e-6,"MEAN_MOTION_DDOT":0}]
